<?xml version="1.0" encoding="UTF-8"?>
<ndm xmlns:xsi="http://www.w3.org/2001/XMLSchema-instance" xsi:noNamespaceSchemaLocation="https://sanaregistry.org/r/ndmxml_unqualified/ndmxml-2.0.0-master-2.0.xsd">
<omm id="CCSDS_OMM_VERS" version="2.0">
<header><CREATION_DATE/><ORIGINATOR/></header><body><segment><metadata><OBJECT_NAME>ONEWEB-0053</OBJECT_NAME><OBJECT_ID>2020-008AC</OBJECT_ID><CENTER_NAME>EARTH</CENTER_NAME><REF_FRAME>TEME</REF_FRAME><TIME_SYSTEM>UTC</TIME_SYSTEM><MEAN_ELEMENT_THEORY>SGP4</MEAN_ELEMENT_THEORY></metadata><data><meanElements><EPOCH>2024-02-16T12:12:12.360096</EPOCH><MEAN_MOTION>13.10371151</MEAN_MOTION><ECCENTRICITY>.0001623</ECCENTRICITY><INCLINATION>87.8927</INCLINATION><RA_OF_ASC_NODE>205.4731</RA_OF_ASC_NODE><ARG_OF_PERICENTER>105.9365</ARG_OF_PERICENTER><MEAN_ANOMALY>254.1941</MEAN_ANOMALY></meanElements><tleParameters><EPHEMERIS_TYPE>0</EPHEMERIS_TYPE><CLASSIFICATION_TYPE>U</CLASSIFICATION_TYPE><NORAD_CAT_ID>45157</NORAD_CAT_ID><ELEMENT_SET_NO>999</ELEMENT_SET_NO><REV_AT_EPOCH>19637</REV_AT_EPOCH><BSTAR>.18182E-2</BSTAR><MEAN_MOTION_DOT>.647E-5</MEAN_MOTION_DOT><MEAN_MOTION_DDOT>0</MEAN_MOTION_DDOT></tleParameters></data></segment></body></omm>
<omm id="CCSDS_OMM_VERS" version="2.0">
<header><CREATION_DATE/><ORIGINATOR/></header><body><segment><metadata><OBJECT_NAME>ONEWEB-0054</OBJECT_NAME><OBJECT_ID>2020-008AD</OBJECT_ID><CENTER_NAME>EARTH</CENTER_NAME><REF_FRAME>TEME</REF_FRAME><TIME_SYSTEM>UTC</TIME_SYSTEM><MEAN_ELEMENT_THEORY>SGP4</MEAN_ELEMENT_THEORY></metadata><data><meanElements><EPOCH>2024-02-16T11:13:41.384640</EPOCH><MEAN_MOTION>13.10373726</MEAN_MOTION><ECCENTRICITY>.0001533</ECCENTRICITY><INCLINATION>87.8929</INCLINATION><RA_OF_ASC_NODE>205.4658</RA_OF_ASC_NODE><ARG_OF_PERICENTER>101.8570</ARG_OF_PERICENTER><MEAN_ANOMALY>258.2730</MEAN_ANOMALY></meanElements><tleParameters><EPHEMERIS_TYPE>0</EPHEMERIS_TYPE><CLASSIFICATION_TYPE>U</CLASSIFICATION_TYPE><NORAD_CAT_ID>45158</NORAD_CAT_ID><ELEMENT_SET_NO>999</ELEMENT_SET_NO><REV_AT_EPOCH>19648</REV_AT_EPOCH><BSTAR>-.15694E-2</BSTAR><MEAN_MOTION_DOT>-.535E-5</MEAN_MOTION_DOT><MEAN_MOTION_DDOT>0</MEAN_MOTION_DDOT></tleParameters></data></segment></body></omm>
<omm id="CCSDS_OMM_VERS" version="2.0">
<header><CREATION_DATE/><ORIGINATOR/></header><body><segment><metadata><OBJECT_NAME>ONEWEB-0056</OBJECT_NAME><OBJECT_ID>2020-008AE</OBJECT_ID><CENTER_NAME>EARTH</CENTER_NAME><REF_FRAME>TEME</REF_FRAME><TIME_SYSTEM>UTC</TIME_SYSTEM><MEAN_ELEMENT_THEORY>SGP4</MEAN_ELEMENT_THEORY></metadata><data><meanElements><EPOCH>2024-02-16T12:35:34.657152</EPOCH><MEAN_MOTION>13.10369120</MEAN_MOTION><ECCENTRICITY>.0001725</ECCENTRICITY><INCLINATION>87.8923</INCLINATION><RA_OF_ASC_NODE>205.4493</RA_OF_ASC_NODE><ARG_OF_PERICENTER>104.5131</ARG_OF_PERICENTER><MEAN_ANOMALY>255.6188</MEAN_ANOMALY></meanElements><tleParameters><EPHEMERIS_TYPE>0</EPHEMERIS_TYPE><CLASSIFICATION_TYPE>U</CLASSIFICATION_TYPE><NORAD_CAT_ID>45159</NORAD_CAT_ID><ELEMENT_SET_NO>999</ELEMENT_SET_NO><REV_AT_EPOCH>19664</REV_AT_EPOCH><BSTAR>-.52735E-3</BSTAR><MEAN_MOTION_DOT>-.171E-5</MEAN_MOTION_DOT><MEAN_MOTION_DDOT>0</MEAN_MOTION_DDOT></tleParameters></data></segment></body></omm>
<omm id="CCSDS_OMM_VERS" version="2.0">
<header><CREATION_DATE/><ORIGINATOR/></header><body><segment><metadata><OBJECT_NAME>ONEWEB-0057</OBJECT_NAME><OBJECT_ID>2020-008AF</OBJECT_ID><CENTER_NAME>EARTH</CENTER_NAME><REF_FRAME>TEME</REF_FRAME><TIME_SYSTEM>UTC</TIME_SYSTEM><MEAN_ELEMENT_THEORY>SGP4</MEAN_ELEMENT_THEORY></metadata><data><meanElements><EPOCH>2024-02-16T10:54:58.654656</EPOCH><MEAN_MOTION>13.10369733</MEAN_MOTION><ECCENTRICITY>.0001682</ECCENTRICITY><INCLINATION>87.8927</INCLINATION><RA_OF_ASC_NODE>205.4604</RA_OF_ASC_NODE><ARG_OF_PERICENTER>100.9307</ARG_OF_PERICENTER><MEAN_ANOMALY>259.2009</MEAN_ANOMALY></meanElements><tleParameters><EPHEMERIS_TYPE>0</EPHEMERIS_TYPE><CLASSIFICATION_TYPE>U</CLASSIFICATION_TYPE><NORAD_CAT_ID>45160</NORAD_CAT_ID><ELEMENT_SET_NO>999</ELEMENT_SET_NO><REV_AT_EPOCH>19680</REV_AT_EPOCH><BSTAR>-.12831E-2</BSTAR><MEAN_MOTION_DOT>-.435E-5</MEAN_MOTION_DOT><MEAN_MOTION_DDOT>0</MEAN_MOTION_DDOT></tleParameters></data></segment></body></omm>
<omm id="CCSDS_OMM_VERS" version="2.0">
<header><CREATION_DATE/><ORIGINATOR/></header><body><segment><metadata><OBJECT_NAME>ONEWEB-0058</OBJECT_NAME><OBJECT_ID>2020-008AG</OBJECT_ID><CENTER_NAME>EARTH</CENTER_NAME><REF_FRAME>TEME</REF_FRAME><TIME_SYSTEM>UTC</TIME_SYSTEM><MEAN_ELEMENT_THEORY>SGP4</MEAN_ELEMENT_THEORY></metadata><data><meanElements><EPOCH>2024-02-16T12:26:26.163168</EPOCH><MEAN_MOTION>13.10369979</MEAN_MOTION><ECCENTRICITY>.0001665</ECCENTRICITY><INCLINATION>87.8920</INCLINATION><RA_OF_ASC_NODE>205.4910</RA_OF_ASC_NODE><ARG_OF_PERICENTER>94.8263</ARG_OF_PERICENTER><MEAN_ANOMALY>265.3055</MEAN_ANOMALY></meanElements><tleParameters><EPHEMERIS_TYPE>0</EPHEMERIS_TYPE><CLASSIFICATION_TYPE>U</CLASSIFICATION_TYPE><NORAD_CAT_ID>45161</NORAD_CAT_ID><ELEMENT_SET_NO>999</ELEMENT_SET_NO><REV_AT_EPOCH>19688</REV_AT_EPOCH><BSTAR>.50603E-3</BSTAR><MEAN_MOTION_DOT>.189E-5</MEAN_MOTION_DOT><MEAN_MOTION_DDOT>0</MEAN_MOTION_DDOT></tleParameters></data></segment></body></omm>
<omm id="CCSDS_OMM_VERS" version="2.0">
<header><CREATION_DATE/><ORIGINATOR/></header><body><segment><metadata><OBJECT_NAME>ONEWEB-0059</OBJECT_NAME><OBJECT_ID>2020-008AH</OBJECT_ID><CENTER_NAME>EARTH</CENTER_NAME><REF_FRAME>TEME</REF_FRAME><TIME_SYSTEM>UTC</TIME_SYSTEM><MEAN_ELEMENT_THEORY>SGP4</MEAN_ELEMENT_THEORY></metadata><data><meanElements><EPOCH>2024-02-16T12:21:33.353568</EPOCH><MEAN_MOTION>13.10370074</MEAN_MOTION><ECCENTRICITY>.0001615</ECCENTRICITY><INCLINATION>87.8927</INCLINATION><RA_OF_ASC_NODE>205.4655</RA_OF_ASC_NODE><ARG_OF_PERICENTER>94.7367</ARG_OF_PERICENTER><MEAN_ANOMALY>265.3944</MEAN_ANOMALY></meanElements><tleParameters><EPHEMERIS_TYPE>0</EPHEMERIS_TYPE><CLASSIFICATION_TYPE>U</CLASSIFICATION_TYPE><NORAD_CAT_ID>45162</NORAD_CAT_ID><ELEMENT_SET_NO>999</ELEMENT_SET_NO><REV_AT_EPOCH>19678</REV_AT_EPOCH><BSTAR>.98275E-3</BSTAR><MEAN_MOTION_DOT>.356E-5</MEAN_MOTION_DOT><MEAN_MOTION_DDOT>0</MEAN_MOTION_DDOT></tleParameters></data></segment></body></omm>
<omm id="CCSDS_OMM_VERS" version="2.0">
<header><CREATION_DATE/><ORIGINATOR/></header><body><segment><metadata><OBJECT_NAME>ONEWEB-0062</OBJECT_NAME><OBJECT_ID>2020-008AJ</OBJECT_ID><CENTER_NAME>EARTH</CENTER_NAME><REF_FRAME>TEME</REF_FRAME><TIME_SYSTEM>UTC</TIME_SYSTEM><MEAN_ELEMENT_THEORY>SGP4</MEAN_ELEMENT_THEORY></metadata><data><meanElements><EPOCH>2024-02-16T11:11:20.922432</EPOCH><MEAN_MOTION>13.10373176</MEAN_MOTION><ECCENTRICITY>.0001492</ECCENTRICITY><INCLINATION>87.8930</INCLINATION><RA_OF_ASC_NODE>205.4614</RA_OF_ASC_NODE><ARG_OF_PERICENTER>101.6735</ARG_OF_PERICENTER><MEAN_ANOMALY>258.4560</MEAN_ANOMALY></meanElements><tleParameters><EPHEMERIS_TYPE>0</EPHEMERIS_TYPE><CLASSIFICATION_TYPE>U</CLASSIFICATION_TYPE><NORAD_CAT_ID>45163</NORAD_CAT_ID><ELEMENT_SET_NO>999</ELEMENT_SET_NO><REV_AT_EPOCH>19664</REV_AT_EPOCH><BSTAR>-.16191E-2</BSTAR><MEAN_MOTION_DOT>-.553E-5</MEAN_MOTION_DOT><MEAN_MOTION_DDOT>0</MEAN_MOTION_DDOT></tleParameters></data></segment></body></omm>
<omm id="CCSDS_OMM_VERS" version="2.0">
<header><CREATION_DATE/><ORIGINATOR/></header><body><segment><metadata><OBJECT_NAME>ONEWEB-0065</OBJECT_NAME><OBJECT_ID>2020-008AK</OBJECT_ID><CENTER_NAME>EARTH</CENTER_NAME><REF_FRAME>TEME</REF_FRAME><TIME_SYSTEM>UTC</TIME_SYSTEM><MEAN_ELEMENT_THEORY>SGP4</MEAN_ELEMENT_THEORY></metadata><data><meanElements><EPOCH>2024-02-16T10:38:36.559680</EPOCH><MEAN_MOTION>13.10369958</MEAN_MOTION><ECCENTRICITY>.0001675</ECCENTRICITY><INCLINATION>87.8928</INCLINATION><RA_OF_ASC_NODE>205.4666</RA_OF_ASC_NODE><ARG_OF_PERICENTER>103.8692</ARG_OF_PERICENTER><MEAN_ANOMALY>256.2622</MEAN_ANOMALY></meanElements><tleParameters><EPHEMERIS_TYPE>0</EPHEMERIS_TYPE><CLASSIFICATION_TYPE>U</CLASSIFICATION_TYPE><NORAD_CAT_ID>45164</NORAD_CAT_ID><ELEMENT_SET_NO>999</ELEMENT_SET_NO><REV_AT_EPOCH>19633</REV_AT_EPOCH><BSTAR>.46155E-4</BSTAR><MEAN_MOTION_DOT>.29E-6</MEAN_MOTION_DOT><MEAN_MOTION_DDOT>0</MEAN_MOTION_DDOT></tleParameters></data></segment></body></omm>

</ndm>
