ONEWEB-0053             
1 45157U 20008AC  24047.50847639  .00000647  00000+0  18182-2 0  9999
2 45157  87.8927 205.4731 0001623 105.9365 254.1941 13.10371151196373
ONEWEB-0054             
1 45158U 20008AD  24047.46784010 -.00000535  00000+0 -15694-2 0  9991
2 45158  87.8929 205.4658 0001533 101.8570 258.2730 13.10373726196480
ONEWEB-0056             
1 45159U 20008AE  24047.52470668 -.00000171  00000+0 -52735-3 0  9994
2 45159  87.8923 205.4493 0001725 104.5131 255.6188 13.10369120196647
ONEWEB-0057             
1 45160U 20008AF  24047.45484554 -.00000435  00000+0 -12831-2 0  9992
2 45160  87.8927 205.4604 0001682 100.9307 259.2009 13.10369733196804
ONEWEB-0058             
1 45161U 20008AG  24047.51835837  .00000189  00000+0  50603-3 0  9998
2 45161  87.8920 205.4910 0001665  94.8263 265.3055 13.10369979196880
ONEWEB-0059             
1 45162U 20008AH  24047.51496937  .00000356  00000+0  98275-3 0  9996
2 45162  87.8927 205.4655 0001615  94.7367 265.3944 13.10370074196787
ONEWEB-0062             
1 45163U 20008AJ  24047.46621438 -.00000553  00000+0 -16191-2 0  9994
2 45163  87.8930 205.4614 0001492 101.6735 258.4560 13.10373176196645
ONEWEB-0065             
1 45164U 20008AK  24047.44347870  .00000029  00000+0  46155-4 0  9999
2 45164  87.8928 205.4666 0001675 103.8692 256.2622 13.10369958196333
